[{"OBJECT_NAME":"CS2","OBJECT_ID":"2021-088C","EPOCH":"2026-03-09T17:38:11.846112","MEAN_MOTION":15.3325593,"ECCENTRICITY":0.00116375,"INCLINATION":97.3928,"RA_OF_ASC_NODE":134.2907,"ARG_OF_PERICENTER":82.3491,"MEAN_ANOMALY":277.9072,"EPHEMERIS_TYPE":0,"CLASSIFICATION_TYPE":"U","NORAD_CAT_ID":49262,"ELEMENT_SET_NO":999,"REV_AT_EPOCH":24526,"BSTAR":0.0005617759,"MEAN_MOTION_DOT":0.00018033,"MEAN_MOTION_DDOT":0},{"OBJECT_NAME":"STARLINK-31251","OBJECT_ID":"2024-017L","EPOCH":"2026-03-09T16:07:53.904288","MEAN_MOTION":15.30189076,"ECCENTRICITY":9.413e-5,"INCLINATION":53.1599,"RA_OF_ASC_NODE":204.3899,"ARG_OF_PERICENTER":77.6945,"MEAN_ANOMALY":282.4161,"EPHEMERIS_TYPE":0,"CLASSIFICATION_TYPE":"U","NORAD_CAT_ID":58836,"ELEMENT_SET_NO":999,"REV_AT_EPOCH":12016,"BSTAR":1.8285236e-5,"MEAN_MOTION_DOT":1.82e-6,"MEAN_MOTION_DDOT":0}]
